NORAD_CAT_ID,OBJECT_NAME,OBJECT_TYPE,EPOCH,MEAN_MOTION,ECCENTRICITY,INCLINATION,RA_OF_ASC_NODE,ARG_OF_PERICENTER,MEAN_ANOMALY,BSTAR,MEAN_MOTION_DOT,MEAN_MOTION_DDOT,TLE_LINE0,TLE_LINE1,TLE_LINE2,SEMIMAJOR_AXIS,PERIOD,APOGEE,PERIGEE,DECAYED
52452.0,STARLINK-3909,PAYLOAD,2023-04-09 04:43:55,15.08841552,0.0001391,53.2144,172.3036,84.7208,275.3943,0.00014592,2.035e-05,0.0,0 STARLINK-3909,1 52452U 22049B   23099.19717139  .00002035  00000-0  14592-3 0  9990,2 52452  53.2144 172.3036 0001391  84.7208 275.3943 15.08841552 51417,6917.876,95.437,540.703,538.778,0.0
52452.0,STARLINK-3909,PAYLOAD,2023-04-09 11:05:28,15.08839683,0.0001457,53.2151,171.1139,88.1397,271.9762,8.1054e-05,1.002e-05,0.0,0 STARLINK-3909,1 52452U 22049B   23099.46213242  .00001002  00000-0  81054-4 0  9997,2 52452  53.2151 171.1139 0001457  88.1397 271.9762 15.08839683 51295,6917.881,95.438,540.754,538.738,0.0
52452.0,STARLINK-3909,PAYLOAD,2023-04-10 07:45:28,15.08841082,0.0001084,53.2145,167.2483,84.3118,275.7997,0.00016055,2.268e-05,0.0,0 STARLINK-3909,1 52452U 22049B   23100.32325174  .00002268  00000-0  16055-3 0  9996,2 52452  53.2145 167.2483 0001084  84.3118 275.7997 15.08841082 51581,6917.877,95.437,540.492,538.992,0.0
52452.0,STARLINK-3909,PAYLOAD,2023-04-11 10:47:01,15.08847179,0.0001306,53.2146,162.1918,97.0676,263.0465,0.00016906,2.404e-05,0.0,0 STARLINK-3909,1 52452U 22049B   23101.44932657  .00002404  00000-0  16906-3 0  9997,2 52452  53.2146 162.1918 0001306  97.0676 263.0465 15.08847179 51758,6917.858,95.437,540.627,538.82,0.0
52452.0,STARLINK-3909,PAYLOAD,2023-04-12 04:16:16,15.08835696,0.0001309,53.2143,158.9198,102.6364,257.4774,-1.9694e-05,-6.01e-06,0.0,0 STARLINK-3909,1 52452U 22049B   23102.17797221 -.00000601  00000-0 -19694-4 0  9991,2 52452  53.2143 158.9198 0001309 102.6364 257.4774 15.08835696 51861,6917.894,95.438,540.664,538.853,0.0
52452.0,STARLINK-3909,PAYLOAD,2023-04-12 09:02:26,15.08833572,0.0001339,53.2153,158.028,102.7589,257.3552,-3.4314e-06,-3.42e-06,0.0,0 STARLINK-3909,1 52452U 22049B   23102.37669652 -.00000342  00000-0 -34314-5 0  9998,2 52452  53.2153 158.0280 0001339 102.7589 257.3552 15.08833572 51738,6917.9,95.438,540.691,538.839,0.0
52452.0,STARLINK-3909,PAYLOAD,2023-04-13 10:28:36,15.08838411,0.0001398,53.2156,153.2699,108.585,251.5295,6.1783e-05,6.95e-06,0.0,0 STARLINK-3909,1 52452U 22049B   23103.43653340  .00000695  00000-0  61783-4 0  9991,2 52452  53.2156 153.2699 0001398 108.5850 251.5295 15.08838411 51896,6917.885,95.438,540.717,538.783,0.0
52452.0,STARLINK-3909,PAYLOAD,2023-04-13 20:00:55,15.08836923,0.0001264,53.2157,151.4862,103.1124,257.001,0.00010267,1.346e-05,0.0,0 STARLINK-3909,1 52452U 22049B   23103.83397420  .00001346  00000-0  10267-3 0  9993,2 52452  53.2157 151.4862 0001264 103.1124 257.0010 15.08836923 52114,6917.89,95.438,540.629,538.88,0.0
52452.0,STARLINK-3909,PAYLOAD,2023-04-14 11:54:47,15.08835803,0.0001151,53.2154,148.5122,87.2435,272.8689,0.00011487,1.541e-05,0.0,0 STARLINK-3909,1 52452U 22049B   23104.49637801  .00001541  00000-0  11487-3 0  9998,2 52452  53.2154 148.5122 0001151  87.2435 272.8689 15.08835803 52055,6917.893,95.438,540.554,538.962,0.0
52452.0,STARLINK-3909,PAYLOAD,2023-04-15 06:59:24,15.08838305,0.000137,53.2141,144.9434,97.7501,262.3647,6.2384e-05,7.05e-06,0.0,0 STARLINK-3909,1 52452U 22049B   23105.29125926  .00000705  00000-0  62384-4 0  9991,2 52452  53.2141 144.9434 0001370  97.7501 262.3647 15.08838305 52339,6917.886,95.438,540.698,538.803,0.0
52452.0,STARLINK-3909,PAYLOAD,2023-04-15 11:45:33,15.08842859,0.0001355,53.2145,144.0505,95.5405,264.5742,7.3331e-05,8.79e-06,0.0,0 STARLINK-3909,1 52452U 22049B   23105.48997655  .00000879  00000-0  73331-4 0  9994,2 52452  53.2145 144.0505 0001355  95.5405 264.5742 15.08842859 52200,6917.872,95.437,540.674,538.799,0.0
52452.0,STARLINK-3909,PAYLOAD,2023-04-15 19:42:29,15.08840808,0.0001461,53.215,142.5656,82.2948,277.821,5.0245e-05,5.12e-06,0.0,0 STARLINK-3909,1 52452U 22049B   23105.82117925  .00000512  00000-0  50245-4 0  9999,2 52452  53.2150 142.5656 0001461  82.2948 277.8210 15.08840808 52253,6917.878,95.438,540.754,538.732,0.0
52452.0,STARLINK-3909,PAYLOAD,2023-04-16 02:04:03,15.0882714,9.05e-05,53.2157,141.3735,87.9528,272.1568,2.4239e-05,9.8e-07,0.0,0 STARLINK-3909,1 52452U 22049B   23106.08614710  .00000098  00000-0  24239-4 0  9995,2 52452  53.2157 141.3735 0000905  87.9528 272.1568 15.08827140 52453,6917.92,95.438,540.411,539.159,0.0
52452.0,STARLINK-3909,PAYLOAD,2023-04-16 10:00:58,15.08840417,0.0001321,53.2148,139.8877,82.7997,277.3145,2.322e-05,8.2e-07,0.0,0 STARLINK-3909,1 52452U 22049B   23106.41734147  .00000082  00000-0  23220-4 0  9991,2 52452  53.2148 139.8877 0001321  82.7997 277.3145 15.08840417 52504,6917.879,95.438,540.658,538.83,0.0
52452.0,STARLINK-3909,PAYLOAD,2023-04-16 19:33:16,15.08843664,0.0001224,53.2153,138.103,88.7704,271.3428,1.1565e-05,-1.04e-06,0.0,0 STARLINK-3909,1 52452U 22049B   23106.81477868 -.00000104  00000-0  11565-4 0  9994,2 52452  53.2153 138.1030 0001224  88.7704 271.3428 15.08843664 52401,6917.869,95.437,540.581,538.887,0.0
52452.0,STARLINK-3909,PAYLOAD,2023-04-17 08:16:22,15.08844319,0.0001386,53.2158,135.7242,85.5041,274.611,4.6772e-05,4.57e-06,0.0,0 STARLINK-3909,1 52452U 22049B   23107.34469910  .00000457  00000-0  46772-4 0  9990,2 52452  53.2158 135.7242 0001386  85.5041 274.6110 15.08844319 52482,6917.867,95.437,540.691,538.773,0.0
52452.0,STARLINK-3909,PAYLOAD,2023-04-17 19:24:04,15.0884069,0.0001414,53.2154,133.6426,79.3788,280.7363,-3.0783e-05,-7.78e-06,0.0,0 STARLINK-3909,1 52452U 22049B   23107.80838234 -.00000778  00000-0 -30783-4 0  9993,2 52452  53.2154 133.6426 0001414  79.3788 280.7363 15.08840690 52712,6917.878,95.438,540.721,538.765,0.0
52452.0,STARLINK-3909,PAYLOAD,2023-04-18 06:31:46,15.08835881,0.0001387,53.2155,131.5609,78.9725,281.1423,7.3082e-05,8.75e-06,0.0,0 STARLINK-3909,1 52452U 22049B   23108.27206510  .00000875  00000-0  73082-4 0  9996,2 52452  53.2155 131.5609 0001387  78.9725 281.1423 15.08835881 52626,6917.893,95.438,540.717,538.798,0.0
52452.0,STARLINK-3909,PAYLOAD,2023-04-18 12:53:18,15.08843212,0.0001291,53.216,130.3697,88.2394,271.8746,5.5733e-05,5.99e-06,0.0,0 STARLINK-3909,1 52452U 22049B   23108.53701921  .00000599  00000-0  55733-4 0  9997,2 52452  53.2160 130.3697 0001291  88.2394 271.8746 15.08843212 52661,6917.871,95.437,540.629,538.842,0.0
52452.0,STARLINK-3909,PAYLOAD,2023-04-19 04:47:10,15.0883762,0.0001404,53.216,127.3957,90.1229,269.9924,3.9028e-05,3.33e-06,0.0,0 STARLINK-3909,1 52452U 22049B   23109.19942610  .00000333  00000-0  39028-4 0  9997,2 52452  53.2160 127.3957 0001404  90.1229 269.9924 15.08837620 52922,6917.888,95.438,540.724,538.781,0.0
52452.0,STARLINK-3909,PAYLOAD,2023-04-19 06:22:33,15.0883774,0.0001399,53.2159,127.0983,89.8996,270.2156,3.9965e-05,3.48e-06,0.0,0 STARLINK-3909,1 52452U 22049B   23109.26566610  .00000348  00000-0  39965-4 0  9993,2 52452  53.2159 127.0983 0001399  89.8996 270.2156 15.08837740 52773,6917.887,95.438,540.72,538.784,0.0
52452.0,STARLINK-3909,PAYLOAD,2023-04-19 17:30:15,15.08841451,0.0001339,53.2156,125.0181,86.9475,273.167,1.7418e-05,-1.1e-07,0.0,0 STARLINK-3909,1 52452U 22049B   23109.72934416 -.00000011  00000-0  17418-4 0  9994,2 52452  53.2156 125.0181 0001339  86.9475 273.1670 15.08841451 52847,6917.876,95.437,540.667,538.815,0.0
52452.0,STARLINK-3909,PAYLOAD,2023-04-20 09:24:06,15.08841217,0.0001367,53.2154,122.045,96.1447,263.9701,7.5473e-05,9.13e-06,0.0,0 STARLINK-3909,1 52452U 22049B   23110.39174392  .00000913  00000-0  75473-4 0  9993,2 52452  53.2154 122.0450 0001367  96.1447 263.9701 15.08841217 52947,6917.877,95.437,540.687,538.796,0.0
52452.0,STARLINK-3909,PAYLOAD,2023-04-20 17:21:02,15.08837511,0.0001268,53.2152,120.5589,88.8618,271.2519,-5.3755e-06,-3.73e-06,0.0,0 STARLINK-3909,1 52452U 22049B   23110.72294886 -.00000373  00000-0 -53755-5 0  9993,2 52452  53.2152 120.5589 0001268  88.8618 271.2519 15.08837511 52995,6917.888,95.438,540.63,538.876,0.0
52452.0,STARLINK-3909,PAYLOAD,2023-04-21 07:39:31,15.08835024,0.0001372,53.2157,117.8828,109.9573,250.1567,1.3796e-05,-6.8e-07,0.0,0 STARLINK-3909,1 52452U 22049B   23111.31911171 -.00000068  00000-0  13796-4 0  9992,2 52452  53.2157 117.8828 0001372 109.9573 250.1567 15.08835024 53241,6917.896,95.438,540.71,538.811,0.0
52452.0,STARLINK-3909,PAYLOAD,2023-04-21 17:11:51,15.08822415,0.0001377,53.2154,116.0976,93.1426,266.9724,-5.6845e-05,-1.192e-05,0.0,0 STARLINK-3909,1 52452U 22049B   23111.71656497 -.00001192  00000-0 -56845-4 0  9995,2 52452  53.2154 116.0976 0001377  93.1426 266.9724 15.08822415 53148,6917.934,95.439,540.752,538.847,0.0
52452.0,STARLINK-3909,PAYLOAD,2023-04-22 12:16:28,15.08831483,0.000132,53.2156,112.5292,98.6288,261.4854,4.0503e-06,-2.23e-06,0.0,0 STARLINK-3909,1 52452U 22049B   23112.51144384 -.00000223  00000-0  40503-5 0  9999,2 52452  53.2156 112.5292 0001320  98.6288 261.4854 15.08831483 53426,6917.906,95.438,540.685,538.858,0.0
52452.0,STARLINK-3909,PAYLOAD,2023-04-23 07:20:51,15.08984209,0.0001753,53.2158,108.9602,56.781,303.335,0.0011802,0.00018619,0.0,0 STARLINK-3909,1 52452U 22049B   23113.30614807  .00018619  00000-0  11802-2 0  9993,2 52452  53.2158 108.9602 0001753  56.7810 303.3350 15.08984209 53543,6917.44,95.428,540.517,538.092,0.0
52452.0,STARLINK-3909,PAYLOAD,2023-04-23 10:31:23,15.09154715,0.0001581,53.2151,108.363,120.0077,240.1072,0.0025571,0.00040999,0.0,0 STARLINK-3909,1 52452U 22049B   23113.43846929  .00040999  00000-0  25571-2 0  9993,2 52452  53.2151 108.3630 0001581 120.0077 240.1072 15.09154715 53406,6916.919,95.418,539.877,537.69,0.0
52452.0,STARLINK-3909,PAYLOAD,2023-04-23 12:06:40,15.09221566,0.0001765,53.2156,108.0657,85.2118,274.9075,0.0030503,0.00049109,0.0,0 STARLINK-3909,1 52452U 22049B   23113.50463386  .00049109  00000-0  30503-2 0  9996,2 52452  53.2156 108.0657 0001765  85.2118 274.9075 15.09221566 53417,6916.714,95.413,539.8,537.359,0.0
